CCSDS_OMM_VERS = 2.0
CREATION_DATE  = 
ORIGINATOR     = 

OBJECT_NAME    = STARLINK-36995
OBJECT_ID      = 2026-049B
CENTER_NAME    = EARTH
REF_FRAME      = TEME
TIME_SYSTEM    = UTC
MEAN_ELEMENT_THEORY = SGP/SGP4

EPOCH          = 2026-03-27T04:00:03.000096
MEAN_MOTION    = 15.80810568
ECCENTRICITY   = .0001127
INCLINATION    = 97.2839
RA_OF_ASC_NODE = 106.2577
ARG_OF_PERICENTER = 104.2940
MEAN_ANOMALY   = 68.6011

EPHEMERIS_TYPE = 0
CLASSIFICATION_TYPE = U
NORAD_CAT_ID   = 68143
ELEMENT_SET_NO = 999
REV_AT_EPOCH   = 343
BSTAR          = -.17491E-3
MEAN_MOTION_DOT = -.33507E-3
MEAN_MOTION_DDOT = 0

CCSDS_OMM_VERS = 2.0
CREATION_DATE  = 
ORIGINATOR     = 

OBJECT_NAME    = STARLINK-37020
OBJECT_ID      = 2026-049C
CENTER_NAME    = EARTH
REF_FRAME      = TEME
TIME_SYSTEM    = UTC
MEAN_ELEMENT_THEORY = SGP/SGP4

EPOCH          = 2026-03-26T22:00:01.999584
MEAN_MOTION    = 15.80796823
ECCENTRICITY   = .00010827
INCLINATION    = 97.2841
RA_OF_ASC_NODE = 105.9988
ARG_OF_PERICENTER = 115.5845
MEAN_ANOMALY   = 84.0286

EPHEMERIS_TYPE = 0
CLASSIFICATION_TYPE = U
NORAD_CAT_ID   = 68144
ELEMENT_SET_NO = 999
REV_AT_EPOCH   = 339
BSTAR          = .26953243E-3
MEAN_MOTION_DOT = .51747E-3
MEAN_MOTION_DDOT = 0

CCSDS_OMM_VERS = 2.0
CREATION_DATE  = 
ORIGINATOR     = 

OBJECT_NAME    = STARLINK-36244
OBJECT_ID      = 2026-049D
CENTER_NAME    = EARTH
REF_FRAME      = TEME
TIME_SYSTEM    = UTC
MEAN_ELEMENT_THEORY = SGP/SGP4

EPOCH          = 2026-03-27T04:00:03.000096
MEAN_MOTION    = 15.79239090
ECCENTRICITY   = .0001803
INCLINATION    = 97.2838
RA_OF_ASC_NODE = 106.2645
ARG_OF_PERICENTER = 93.9410
MEAN_ANOMALY   = 94.9083

EPHEMERIS_TYPE = 0
CLASSIFICATION_TYPE = U
NORAD_CAT_ID   = 68145
ELEMENT_SET_NO = 999
REV_AT_EPOCH   = 344
BSTAR          = -.12763E-1
MEAN_MOTION_DOT = -.1976054E-1
MEAN_MOTION_DDOT = 0

CCSDS_OMM_VERS = 2.0
CREATION_DATE  = 
ORIGINATOR     = 

OBJECT_NAME    = STARLINK-36980
OBJECT_ID      = 2026-049E
CENTER_NAME    = EARTH
REF_FRAME      = TEME
TIME_SYSTEM    = UTC
MEAN_ELEMENT_THEORY = SGP/SGP4

EPOCH          = 2026-03-27T04:00:03.000096
MEAN_MOTION    = 15.80832199
ECCENTRICITY   = .0001673
INCLINATION    = 97.2838
RA_OF_ASC_NODE = 106.2634
ARG_OF_PERICENTER = 117.0113
MEAN_ANOMALY   = 68.7008

EPHEMERIS_TYPE = 0
CLASSIFICATION_TYPE = U
NORAD_CAT_ID   = 68146
ELEMENT_SET_NO = 999
REV_AT_EPOCH   = 343
BSTAR          = -.42955E-3
MEAN_MOTION_DOT = -.81719E-3
MEAN_MOTION_DDOT = 0

CCSDS_OMM_VERS = 2.0
CREATION_DATE  = 
ORIGINATOR     = 

OBJECT_NAME    = STARLINK-37055
OBJECT_ID      = 2026-049F
CENTER_NAME    = EARTH
REF_FRAME      = TEME
TIME_SYSTEM    = UTC
MEAN_ELEMENT_THEORY = SGP/SGP4

EPOCH          = 2026-03-27T04:00:03.000096
MEAN_MOTION    = 15.80812628
ECCENTRICITY   = .0001141
INCLINATION    = 97.2839
RA_OF_ASC_NODE = 106.2591
ARG_OF_PERICENTER = 100.1483
MEAN_ANOMALY   = 77.0185

EPHEMERIS_TYPE = 0
CLASSIFICATION_TYPE = U
NORAD_CAT_ID   = 68147
ELEMENT_SET_NO = 999
REV_AT_EPOCH   = 343
BSTAR          = -.18055E-3
MEAN_MOTION_DOT = -.34584E-3
MEAN_MOTION_DDOT = 0

CCSDS_OMM_VERS = 2.0
CREATION_DATE  = 
ORIGINATOR     = 

OBJECT_NAME    = STARLINK-36981
OBJECT_ID      = 2026-049G
CENTER_NAME    = EARTH
REF_FRAME      = TEME
TIME_SYSTEM    = UTC
MEAN_ELEMENT_THEORY = SGP/SGP4

EPOCH          = 2026-03-27T04:00:03.000096
MEAN_MOTION    = 15.80816696
ECCENTRICITY   = .0001541
INCLINATION    = 97.2841
RA_OF_ASC_NODE = 106.2669
ARG_OF_PERICENTER = 98.6181
MEAN_ANOMALY   = 95.6449

EPHEMERIS_TYPE = 0
CLASSIFICATION_TYPE = U
NORAD_CAT_ID   = 68148
ELEMENT_SET_NO = 999
REV_AT_EPOCH   = 343
BSTAR          = -.2273E-3
MEAN_MOTION_DOT = -.43467E-3
MEAN_MOTION_DDOT = 0

CCSDS_OMM_VERS = 2.0
CREATION_DATE  = 
ORIGINATOR     = 

OBJECT_NAME    = STARLINK-36992
OBJECT_ID      = 2026-049H
CENTER_NAME    = EARTH
REF_FRAME      = TEME
TIME_SYSTEM    = UTC
MEAN_ELEMENT_THEORY = SGP/SGP4

EPOCH          = 2026-03-27T04:00:03.000096
MEAN_MOTION    = 15.80834112
ECCENTRICITY   = .0001198
INCLINATION    = 97.2840
RA_OF_ASC_NODE = 106.2685
ARG_OF_PERICENTER = 65.2362
MEAN_ANOMALY   = 133.2856

EPHEMERIS_TYPE = 0
CLASSIFICATION_TYPE = U
NORAD_CAT_ID   = 68149
ELEMENT_SET_NO = 999
REV_AT_EPOCH   = 343
BSTAR          = -.64141E-4
MEAN_MOTION_DOT = -.1242E-3
MEAN_MOTION_DDOT = 0

CCSDS_OMM_VERS = 2.0
CREATION_DATE  = 
ORIGINATOR     = 

OBJECT_NAME    = STARLINK-37060
OBJECT_ID      = 2026-049J
CENTER_NAME    = EARTH
REF_FRAME      = TEME
TIME_SYSTEM    = UTC
MEAN_ELEMENT_THEORY = SGP/SGP4

EPOCH          = 2026-03-27T04:00:03.000096
MEAN_MOTION    = 15.80823585
ECCENTRICITY   = .0001188
INCLINATION    = 97.2840
RA_OF_ASC_NODE = 106.2710
ARG_OF_PERICENTER = 95.4360
MEAN_ANOMALY   = 107.3630

EPHEMERIS_TYPE = 0
CLASSIFICATION_TYPE = U
NORAD_CAT_ID   = 68150
ELEMENT_SET_NO = 999
REV_AT_EPOCH   = 343
BSTAR          = .22757E-4
MEAN_MOTION_DOT = .4221E-4
MEAN_MOTION_DDOT = 0

CCSDS_OMM_VERS = 2.0
CREATION_DATE  = 
ORIGINATOR     = 

OBJECT_NAME    = STARLINK-37073
OBJECT_ID      = 2026-049K
CENTER_NAME    = EARTH
REF_FRAME      = TEME
TIME_SYSTEM    = UTC
MEAN_ELEMENT_THEORY = SGP/SGP4

EPOCH          = 2026-03-27T04:00:03.000096
MEAN_MOTION    = 15.80820634
ECCENTRICITY   = .0001268
INCLINATION    = 97.2840
RA_OF_ASC_NODE = 106.2723
ARG_OF_PERICENTER = 120.2291
MEAN_ANOMALY   = 86.8443

EPHEMERIS_TYPE = 0
CLASSIFICATION_TYPE = U
NORAD_CAT_ID   = 68151
ELEMENT_SET_NO = 999
REV_AT_EPOCH   = 343
BSTAR          = -.37061E-4
MEAN_MOTION_DOT = -.7236E-4
MEAN_MOTION_DDOT = 0

CCSDS_OMM_VERS = 2.0
CREATION_DATE  = 
ORIGINATOR     = 

OBJECT_NAME    = STARLINK-37049
OBJECT_ID      = 2026-049L
CENTER_NAME    = EARTH
REF_FRAME      = TEME
TIME_SYSTEM    = UTC
MEAN_ELEMENT_THEORY = SGP/SGP4

EPOCH          = 2026-03-27T04:00:03.000096
MEAN_MOTION    = 15.80785648
ECCENTRICITY   = .0001155
INCLINATION    = 97.2841
RA_OF_ASC_NODE = 106.2749
ARG_OF_PERICENTER = 85.8739
MEAN_ANOMALY   = 125.4888

EPHEMERIS_TYPE = 0
CLASSIFICATION_TYPE = U
NORAD_CAT_ID   = 68152
ELEMENT_SET_NO = 999
REV_AT_EPOCH   = 343
BSTAR          = .28493E-3
MEAN_MOTION_DOT = .54702E-3
MEAN_MOTION_DDOT = 0

CCSDS_OMM_VERS = 2.0
CREATION_DATE  = 
ORIGINATOR     = 

OBJECT_NAME    = STARLINK-37072
OBJECT_ID      = 2026-049M
CENTER_NAME    = EARTH
REF_FRAME      = TEME
TIME_SYSTEM    = UTC
MEAN_ELEMENT_THEORY = SGP/SGP4

EPOCH          = 2026-03-27T04:00:03.000096
MEAN_MOTION    = 15.80830670
ECCENTRICITY   = .0001431
INCLINATION    = 97.2839
RA_OF_ASC_NODE = 106.2756
ARG_OF_PERICENTER = 101.2178
MEAN_ANOMALY   = 114.4063

EPHEMERIS_TYPE = 0
CLASSIFICATION_TYPE = U
NORAD_CAT_ID   = 68153
ELEMENT_SET_NO = 999
REV_AT_EPOCH   = 343
BSTAR          = -.31062E-3
MEAN_MOTION_DOT = -.59279E-3
MEAN_MOTION_DDOT = 0

CCSDS_OMM_VERS = 2.0
CREATION_DATE  = 
ORIGINATOR     = 

OBJECT_NAME    = STARLINK-36241
OBJECT_ID      = 2026-049N
CENTER_NAME    = EARTH
REF_FRAME      = TEME
TIME_SYSTEM    = UTC
MEAN_ELEMENT_THEORY = SGP/SGP4

EPOCH          = 2026-03-27T04:00:03.000096
MEAN_MOTION    = 15.76628692
ECCENTRICITY   = .0001745
INCLINATION    = 97.2836
RA_OF_ASC_NODE = 106.2766
ARG_OF_PERICENTER = 85.0282
MEAN_ANOMALY   = 131.7707

EPHEMERIS_TYPE = 0
CLASSIFICATION_TYPE = U
NORAD_CAT_ID   = 68154
ELEMENT_SET_NO = 999
REV_AT_EPOCH   = 344
BSTAR          = -.1259E-1
MEAN_MOTION_DOT = -.1762514E-1
MEAN_MOTION_DDOT = 0

