STARLINK-36995          
1 68143U 26049B   26086.16670139 -.00033507  00000+0 -17491-3 0  9992
2 68143  97.2839 106.2577 0001127 104.2940  68.6011 15.80810568  3435
STARLINK-37020          
1 68144U 26049C   26085.91668981  .00051747  00000+0  26953-3 0  9994
2 68144  97.2841 105.9988 0001082 115.5845  84.0286 15.80796823  3398
STARLINK-36244          
1 68145U 26049D   26086.16670139 -.01976054  00000+0 -12763-1 0  9993
2 68145  97.2838 106.2645 0001803  93.9410  94.9083 15.79239090  3444
STARLINK-36980          
1 68146U 26049E   26086.16670139 -.00081719  00000+0 -42955-3 0  9996
2 68146  97.2838 106.2634 0001673 117.0113  68.7008 15.80832199  3432
STARLINK-37055          
1 68147U 26049F   26086.16670139 -.00034584  00000+0 -18055-3 0  9999
2 68147  97.2839 106.2591 0001141 100.1483  77.0185 15.80812628  3433
STARLINK-36981          
1 68148U 26049G   26086.16670139 -.00043467  00000+0 -22730-3 0  9995
2 68148  97.2841 106.2669 0001541  98.6181  95.6449 15.80816696  3431
STARLINK-36992          
1 68149U 26049H   26086.16670139 -.00012420  00000+0 -64141-4 0  9994
2 68149  97.2840 106.2685 0001198  65.2362 133.2856 15.80834112  3432
STARLINK-37060          
1 68150U 26049J   26086.16670139  .00004221  00000+0  22757-4 0  9991
2 68150  97.2840 106.2710 0001188  95.4360 107.3630 15.80823585  3439
STARLINK-37073          
1 68151U 26049K   26086.16670139 -.00007236  00000+0 -37061-4 0  9997
2 68151  97.2840 106.2723 0001268 120.2291  86.8443 15.80820634  3438
STARLINK-37049          
1 68152U 26049L   26086.16670139  .00054702  00000+0  28493-3 0  9994
2 68152  97.2841 106.2749 0001155  85.8739 125.4888 15.80785648  3434
STARLINK-37072          
1 68153U 26049M   26086.16670139 -.00059279  00000+0 -31062-3 0  9997
2 68153  97.2839 106.2756 0001431 101.2178 114.4063 15.80830670  3436
STARLINK-36241          
1 68154U 26049N   26086.16670139 -.01762514  00000+0 -12590-1 0  9995
2 68154  97.2836 106.2766 0001745  85.0282 131.7707 15.76628692  3440
